GLOBALSTAR M057         
1 25943U 99058A   25107.56204564 -.00000043  00000+0  45154-3 0  9990
2 25943  51.9966 160.2582 0002657 246.0230 114.0341 12.24817437159505
GLOBALSTAR M059         
1 25944U 99058B   25107.87095427 -.00000008  00000+0  96667-3 0  9997
2 25944  52.0051  10.3469 0000518 118.8241 317.5743 11.99977093155557
GLOBALSTAR M056         
1 25945U 99058C   25107.13179797 -.00000104  00000+0 -18957-3 0  9994
2 25945  51.9996  15.8717 0001666  64.2001  83.0338 12.04778439155266
GLOBALSTAR M031         
1 25946U 99058D   25107.85228582  .00000015  00000+0  10703-2 0  9990
2 25946  51.9953 269.8504 0001994  76.7541  71.4827 12.16034254157445
GLOBALSTAR M039         
1 25961U 99062A   25107.27531747 -.00000071  00000+0  18299-3 0  9990
2 25961  51.9829  94.2399 0002500 210.0679 150.0044 12.62323461172528
GLOBALSTAR M034         
1 25962U 99062B   25107.35892021 -.00000043  00000+0  60775-3 0  9990
2 25962  51.9852 169.5068 0013921 284.5929 156.8831 11.79446963131216
GLOBALSTAR M029         
1 25963U 99062C   25107.62739075 -.00000053  00000+0  41706-3 0  9994
2 25963  51.9798 259.0956 0002238  17.0600  64.7158 11.99894863161851
GLOBALSTAR M061         
1 25964U 99062D   25107.90563833 -.00000030  00000+0  82246-3 0  9992
2 25964  51.9831 351.3206 0005514 205.4654 239.6307 11.76773579114375
